NORAD_CAT_ID,OBJECT_NAME,OBJECT_TYPE,EPOCH,MEAN_MOTION,ECCENTRICITY,INCLINATION,RA_OF_ASC_NODE,ARG_OF_PERICENTER,MEAN_ANOMALY,BSTAR,MEAN_MOTION_DOT,MEAN_MOTION_DDOT,TLE_LINE0,TLE_LINE1,TLE_LINE2,SEMIMAJOR_AXIS,PERIOD,APOGEE,PERIGEE,DECAYED
52290.0,STARLINK-3772,PAYLOAD,2023-01-26 14:49:00,15.08841414,0.0001224,53.2166,168.1308,94.0968,266.0164,8.225100000000001e-05,1.021e-05,0.0,0 STARLINK-3772,1 52290U 22041AF  23026.61736957  .00001021  00000-0  82251-4 0  9990,2 52290  53.2166 168.1308 0001224  94.0968 266.0164 15.08841414 42697,6917.876,95.437,540.5880000000001,538.894,0.0
52290.0,STARLINK-3772,PAYLOAD,2023-01-26 17:59:46,15.08847932,0.000124,53.2167,167.5356,92.7332,267.3802,0.00013179,1.811e-05,0.0,0 STARLINK-3772,1 52290U 22041AF  23026.74984459  .00001811  00000-0  13179-3 0  9995,2 52290  53.2167 167.5356 0001240  92.7332 267.3802 15.08847932 43923,6917.856,95.437,540.5790000000001,538.863,0.0
52290.0,STARLINK-3772,PAYLOAD,2023-01-27 13:04:25,15.08833247,0.0001458,53.2168,163.9656,114.628,245.4864,6.811e-05,7.96e-06,0.0,0 STARLINK-3772,1 52290U 22041AF  23027.54473486  .00000796  00000-0  68110-4 0  9994,2 52290  53.2168 163.9656 0001458 114.6280 245.4864 15.08833247 44047,6917.901,95.438,540.775,538.757,0.0
52290.0,STARLINK-3772,PAYLOAD,2023-01-27 14:39:48,15.08832401,0.0001273,53.2169,163.6684,111.5971,248.5157,6.8127e-05,7.96e-06,0.0,0 STARLINK-3772,1 52290U 22041AF  23027.61097542  .00000796  00000-0  68127-4 0  9995,2 52290  53.2169 163.6684 0001273 111.5971 248.5157 15.08832401 42840,6917.904,95.438,540.649,538.888,0.0
52290.0,STARLINK-3772,PAYLOAD,2023-01-28 12:55:12,15.08838556,0.0001418,53.2186,159.5077,97.3744,262.7409,3.8595e-05,3.26e-06,0.0,0 STARLINK-3772,1 52290U 22041AF  23028.53833539  .00000326  00000-0  38595-4 0  9996,2 52290  53.2186 159.5077 0001418  97.3744 262.7409 15.08838556 42989,6917.885,95.438,540.731,538.769,0.0
52290.0,STARLINK-3772,PAYLOAD,2023-01-28 17:41:21,15.08841719,0.0001228,53.2171,158.615,86.938,273.1753,4.9496e-05,5e-06,0.0,0 STARLINK-3772,1 52290U 22041AF  23028.73705292  .00000500  00000-0  49496-4 0  9998,2 52290  53.2171 158.6150 0001228  86.9380 273.1753 15.08841719 44226,6917.875,95.437,540.59,538.891,0.0
52290.0,STARLINK-3772,PAYLOAD,2023-01-29 07:59:50,15.08831478,0.0001142,53.2156,155.9374,92.4604,267.6519,1.542e-06,-2.63e-06,0.0,0 STARLINK-3772,1 52290U 22041AF  23029.33322097 -.00000263  00000-0  15420-5 0  9991,2 52290  53.2156 155.9374 0001142  92.4604 267.6519 15.08831478 44312,6917.906,95.438,540.561,538.981,0.0
52290.0,STARLINK-3772,PAYLOAD,2023-01-29 17:32:08,15.08838296,0.0001235,53.2172,154.1546,92.225,267.8883,5.8724e-05,6.47e-06,0.0,0 STARLINK-3772,1 52290U 22041AF  23029.73065653  .00000647  00000-0  58724-4 0  9995,2 52290  53.2172 154.1546 0001235  92.2250 267.8883 15.08838296 44377,6917.886,95.438,540.605,538.896,0.0
52290.0,STARLINK-3772,PAYLOAD,2023-01-30 07:50:36,15.08841711,0.0001237,53.2168,151.4782,92.2399,267.8735,7.8927e-05,9.69e-06,0.0,0 STARLINK-3772,1 52290U 22041AF  23030.32681384  .00000969  00000-0  78927-4 0  9991,2 52290  53.2168 151.4782 0001237  92.2399 267.8735 15.08841711 43258,6917.875,95.437,540.596,538.884,0.0
52290.0,STARLINK-3772,PAYLOAD,2023-01-30 22:09:14,15.08744402,9.19e-05,53.2186,148.8031,48.7406,311.3665,-0.00067031,-0.00010912,0.0,0 STARLINK-3772,1 52290U 22041AF  23030.92308383 -.00010912  00000-0 -67031-3 0  9996,2 52290  53.2186 148.8031 0000919  48.7406 311.3665 15.08744402 43342,6918.173,95.444,540.673,539.402,0.0
52290.0,STARLINK-3772,PAYLOAD,2023-01-30 23:44:50,15.08572814,0.0002385,53.2173,148.5074,45.078,315.0405,-0.0021354,-0.00033868,0.0,0 STARLINK-3772,1 52290U 22041AF  23030.98947625 -.00033868  00000-0 -21354-2 0  9992,2 52290  53.2173 148.5074 0002385  45.0780 315.0405 15.08572814 44560,6918.697,95.454,542.212,538.912,0.0
52290.0,STARLINK-3772,PAYLOAD,2023-01-31 10:52:52,15.08407802,8.24e-05,53.217,146.4258,96.3317,263.7769,-0.0031233,-0.00049074,0.0,0 STARLINK-3772,1 52290U 22041AF  23031.45338504 -.00049074  00000-0 -31233-2 0  9998,2 52290  53.2170 146.4258 0000824  96.3317 263.7769 15.08407802 44633,6919.202,95.465,541.637,540.497,0.0
52290.0,STARLINK-3772,PAYLOAD,2023-01-31 17:14:47,15.08208035,0.0001212,53.2176,145.2369,46.7927,313.3166,-0.0046329,-0.0007203,0.0,0 STARLINK-3772,1 52290U 22041AF  23031.71860294 -.00072030  00000-0 -46329-2 0  9993,2 52290  53.2176 145.2369 0001212  46.7927 313.3166 15.08208035 44671,6919.813,95.478,542.516,540.839,0.0
52290.0,STARLINK-3772,PAYLOAD,2023-01-31 23:36:46,15.07974806,0.0002446,53.2176,144.05,52.5797,307.5417,-0.0062642,-0.00096356,0.0,0 STARLINK-3772,1 52290U 22041AF  23031.98387509 -.00096356  00000-0 -62642-2 0  9998,2 52290  53.2176 144.0500 0002446  52.5797 307.5417 15.07974806 44719,6920.526,95.492,544.084,540.698,0.0
52290.0,STARLINK-3772,PAYLOAD,2023-02-01 14:00:01,15.07207932,0.0001321,53.2157,141.3601,81.7869,294.5911,-0.002249,-0.00034355,0.0,0 STARLINK-3772,1 52290U 22041AF  23032.58334491 -.00034355  00000-0 -22490-2 0  9995,2 52290  53.2157 141.3601 0001321  81.7869 294.5911 15.07207932 44808,6922.873,95.541,545.653,543.824,0.0
52290.0,STARLINK-3772,PAYLOAD,2023-02-02 06:00:00,15.07194405,0.0001208,53.216,138.3734,92.5974,303.0279,0.0035875,0.00054733,0.0,0 STARLINK-3772,1 52290U 22041AF  23033.25001157  .00054733  00000-0  35875-2 0  9991,2 52290  53.2160 138.3734 0001208  92.5974 303.0279 15.07194405 44911,6922.915,95.542,545.616,543.944,0.0
52290.0,STARLINK-3772,PAYLOAD,2023-02-02 14:00:01,15.07245769,0.0001234,53.2161,136.8826,87.0807,318.1885,-0.0068333,-0.0010292,0.0,0 STARLINK-3772,1 52290U 22041AF  23033.58334491 -.00102920  00000-0 -68333-2 0  9996,2 52290  53.2161 136.8826 0001234  87.0807 318.1885 15.07245769  1306,6922.758,95.539,545.477,543.768,0.0
52290.0,STARLINK-3772,PAYLOAD,2023-02-03 00:00:00,15.07182905,0.0001147,53.2161,135.0158,100.2375,47.0664,0.00019838,2.736e-05,0.0,0 STARLINK-3772,1 52290U 22041AF  23034.00001157  .00002736  00000-0  19838-3 0  9993,2 52290  53.2161 135.0158 0001147 100.2375  47.0664 15.07182905 45028,6922.95,95.542,545.609,544.021,0.0
52290.0,STARLINK-3772,PAYLOAD,2023-02-03 14:00:01,15.07205294,0.000119,53.216,132.4052,95.8028,338.3184,-0.0011627,-0.00017937,0.0,0 STARLINK-3772,1 52290U 22041AF  23034.58334491 -.00017937  00000-0 -11627-2 0  9994,2 52290  53.2160 132.4052 0001190  95.8028 338.3184 15.07205294  1306,6922.882,95.541,545.57,543.923,0.0
52290.0,STARLINK-3772,PAYLOAD,2023-02-04 00:00:00,15.07204321,0.000112,53.2159,130.5383,104.4739,71.679,0.00066225,9.811e-05,0.0,0 STARLINK-3772,1 52290U 22041AF  23035.00001157  .00009811  00000-0  66225-3 0  9997,2 52290  53.2159 130.5383 0001120 104.4739  71.6790 15.07204321  1309,6922.885,95.541,545.525,543.974,0.0
52290.0,STARLINK-3772,PAYLOAD,2023-02-04 08:00:01,15.07243272,0.0001203,53.216,129.046,103.0751,82.7046,-0.0016448,-0.00025258,0.0,0 STARLINK-3772,1 52290U 22041AF  23035.33334491 -.00025258  00000-0 -16448-2 0  9999,2 52290  53.2160 129.0460 0001203 103.0751  82.7046 15.07243272 45225,6922.765,95.539,545.463,543.797,0.0
52290.0,STARLINK-3772,PAYLOAD,2023-02-04 14:00:01,15.07232451,0.0001199,53.2158,127.9278,88.4578,14.5765,-0.0046169,-0.00069926,0.0,0 STARLINK-3772,1 52290U 22041AF  23035.58334491 -.00069926  00000-0 -46169-2 0  9999,2 52290  53.2158 127.9278 0001199  88.4578  14.5765 15.07232451  1302,6922.798,95.539,545.493,543.833,0.0
52290.0,STARLINK-3772,PAYLOAD,2023-02-04 22:00:00,15.07198191,0.0001123,53.2156,126.4341,86.4474,26.217,-0.00042237,-6.705e-05,0.0,0 STARLINK-3772,1 52290U 22041AF  23035.91667824 -.00006705  00000-0 -42237-3 0  9994,2 52290  53.2156 126.4341 0001123  86.4474  26.2170 15.07198191  1307,6922.903,95.542,545.546,543.991,0.0
52290.0,STARLINK-3772,PAYLOAD,2023-02-05 13:25:00,15.07286046,0.0001571,53.2184,123.5582,140.7553,219.3552,0.0016639,0.00025191,0.0,0 STARLINK-3772,1 52290U 22041AF  23036.55903402  .00025191  00000-0  16639-2 0  9994,2 52290  53.2184 123.5582 0001571 140.7553 219.3552 15.07286046 45407,6922.634,95.536,545.587,543.412,0.0
52290.0,STARLINK-3772,PAYLOAD,2023-02-05 15:00:28,15.07312398,0.0001116,53.2171,123.2599,123.9314,236.1784,0.0021312,0.00032401,0.0,0 STARLINK-3772,1 52290U 22041AF  23036.62533299  .00032401  00000-0  21312-2 0  9991,2 52290  53.2171 123.2599 0001116 123.9314 236.1784 15.07312398 45416,6922.554,95.534,545.191,543.646,0.0
52290.0,STARLINK-3772,PAYLOAD,2023-02-05 22:57:46,15.07465576,7.12e-05,53.2168,121.775,196.0474,164.0495,0.0043662,0.00067289,0.0,0 STARLINK-3772,1 52290U 22041AF  23036.95679267  .00067289  00000-0  43662-2 0  9997,2 52290  53.2168 121.7750 0000712 196.0474 164.0495 15.07465576 45463,6922.085,95.525,544.442,543.457,0.0
52290.0,STARLINK-3772,PAYLOAD,2023-02-06 11:41:17,15.07928804,0.0002165,53.217,119.3975,153.6295,206.4807,0.012117,0.00193029,0.0,0 STARLINK-3772,1 52290U 22041AF  23037.48701035  .00193029  00000-0  12117-1 0  9997,2 52290  53.2170 119.3975 0002165 153.6295 206.4807 15.07928804 45547,6920.667,95.495,544.03,541.034,0.0
52290.0,STARLINK-3772,PAYLOAD,2023-02-06 21:13:49,15.0821035,0.000446,53.2151,117.6144,43.797,316.3375,0.013744,0.00221581,0.0,0 STARLINK-3772,1 52290U 22041AF  23037.88459684  .00221581  00000-0  13744-1 0  9993,2 52290  53.2151 117.6144 0004460  43.7970 316.3375 15.08210350 45603,6919.806,95.477,544.757,538.584,0.0
52290.0,STARLINK-3772,PAYLOAD,2023-02-07 06:00:00,15.08831228,0.0001195,53.2159,115.973,86.1559,99.9075,8.5824e-05,1.078e-05,0.0,0 STARLINK-3772,1 52290U 22041AF  23038.25001157  .00001078  00000-0  85824-4 0  9991,2 52290  53.2159 115.9730 0001195  86.1559  99.9075 15.08831228 45669,6917.907,95.438,540.599,538.946,0.0
52290.0,STARLINK-3772,PAYLOAD,2023-02-07 14:00:01,15.08815723,0.0001328,53.2159,114.4783,70.4615,127.21,0.00068391,0.00010606,0.0,0 STARLINK-3772,1 52290U 22041AF  23038.58334491  .00010606  00000-0  68391-3 0  9993,2 52290  53.2159 114.4783 0001328  70.4615 127.2100 15.08815723  1307,6917.955,95.439,540.738,538.901,0.0
